[{"OBJECT_NAME":"EGYPTSAT-A (MISRSAT-A)","OBJECT_ID":"2019-008A","EPOCH":"2026-03-09T23:42:01.937952","MEAN_MOTION":14.72293505,"ECCENTRICITY":0.00010879,"INCLINATION":98.0143,"RA_OF_ASC_NODE":135.2007,"ARG_OF_PERICENTER":85.2157,"MEAN_ANOMALY":274.9175,"EPHEMERIS_TYPE":0,"CLASSIFICATION_TYPE":"U","NORAD_CAT_ID":44047,"ELEMENT_SET_NO":999,"REV_AT_EPOCH":37864,"BSTAR":9.9362666e-5,"MEAN_MOTION_DOT":5.78e-6,"MEAN_MOTION_DDOT":0},{"OBJECT_NAME":"COSMOS 1275 DEB","OBJECT_ID":"1981-053DS","EPOCH":"2026-03-09T21:51:17.753760","MEAN_MOTION":14.69129861,"ECCENTRICITY":0.00806025,"INCLINATION":82.9206,"RA_OF_ASC_NODE":32.9945,"ARG_OF_PERICENTER":176.3922,"MEAN_ANOMALY":183.7886,"EPHEMERIS_TYPE":0,"CLASSIFICATION_TYPE":"U","NORAD_CAT_ID":12773,"ELEMENT_SET_NO":999,"REV_AT_EPOCH":26237,"BSTAR":0.00366102,"MEAN_MOTION_DOT":0.0002269,"MEAN_MOTION_DDOT":0}]
